{
  "66013": {
    "noradId": "66013",
    "tle": [
      "1 66013C 25232J   26100.89006944 -.00007161  00000+0 -24139-3 0  1001",
      "2 66013  53.1579 314.3967 0001026  85.2413 318.7970 15.30188937    14"
    ]
  },
  "66014": {
    "noradId": "66014",
    "tle": [
      "1 66014C 25232K   26100.94284722 -.00000021  00000+0 -71581-6 0  1004",
      "2 66014  53.1585 314.0017 0001236  81.8803 328.6795 15.30188272    10"
    ]
  },
  "66015": {
    "noradId": "66015",
    "tle": [
      "1 66015C 25232L   26100.89979167 -.00002948  00000+0 -99353-4 0  1008",
      "2 66015  53.1593 314.4823 0001100  84.8423 302.9868 15.30190130    12"
    ]
  },
  "66016": {
    "noradId": "66016",
    "tle": [
      "1 66016C 25232M   26100.91437500 -.00004280  00000+0 -14426-3 0  1000",
      "2 66016  53.1600 314.4847 0001316  88.0088 345.3063 15.30190551    15"
    ]
  },
  "66017": {
    "noradId": "66017",
    "tle": [
      "1 66017C 25232N   26100.93590278  .00001497  00000+0  50448-4 0  1005",
      "2 66017  53.1583 314.2169 0001085  91.9169 187.3000 15.30184544    17"
    ]
  },
  "66018": {
    "noradId": "66018",
    "tle": [
      "1 66018C 25232P   26100.93937500  .00023370  00000+0  78775-3 0  1005",
      "2 66018  53.1601 314.3930 0001304  79.6279 119.8455 15.30175625    19"
    ]
  },
  "66019": {
    "noradId": "66019",
    "tle": [
      "1 66019C 25232Q   26100.88937500 -.00023095  00000+0 -77841-3 0  1009",
      "2 66019  53.1588 314.4866 0001288  86.7814 266.9031 15.30201381    11"
    ]
  },
  "66020": {
    "noradId": "66020",
    "tle": [
      "1 66020C 25232R   26100.89770833 -.00033998  00000+0 -11462-2 0  1005",
      "2 66020  53.1581 314.2439 0000985  82.6828  61.6314 15.30200268    10"
    ]
  },
  "66021": {
    "noradId": "66021",
    "tle": [
      "1 66021C 25232S   26100.90743056  .00001294  00000+0  43624-4 0  1004",
      "2 66021  53.1580 314.2679 0001084  86.5786  76.4187 15.30189095    19"
    ]
  },
  "66022": {
    "noradId": "66022",
    "tle": [
      "1 66022C 25232T   26100.90326389  .00011816  00000+0  39820-3 0  1004",
      "2 66022  53.1589 314.1477 0000667  71.8495 137.8619 15.30189648    10"
    ]
  },
  "66023": {
    "noradId": "66023",
    "tle": [
      "1 66023C 25232U   26100.91437500 -.00010541  00000+0 -35535-3 0  1009",
      "2 66023  53.1597 314.0266 0001132  85.4120 220.5606 15.30189374    11"
    ]
  },
  "66024": {
    "noradId": "66024",
    "tle": [
      "1 66024C 25232V   26100.87131944 -.00032934  00000+0 -11100-2 0  1009",
      "2 66024  53.1608 314.0757 0001058  76.8524  67.4154 15.30208114    19"
    ]
  },
  "66025": {
    "noradId": "66025",
    "tle": [
      "1 66025C 25232W   26100.93729167  .00011054  00000+0  37259-3 0  1009",
      "2 66025  53.1608 313.8501 0001376  83.1626  24.0224 15.30183891    12"
    ]
  },
  "66026": {
    "noradId": "66026",
    "tle": [
      "1 66026C 25232X   26100.87479167 -.00001500  00000+0 -50578-4 0  1002",
      "2 66026  53.1604 314.7249 0001329  84.4372 101.6488 15.30169387    16"
    ]
  },
  "66027": {
    "noradId": "66027",
    "tle": [
      "1 66027C 25232Y   26100.90395833 -.00002418  00000+0 -81491-4 0  1001",
      "2 66027  53.1603 314.5614 0001425  84.8969 273.5612 15.30187005    18"
    ]
  },
  "66028": {
    "noradId": "66028",
    "tle": [
      "1 66028C 25232Z   26100.91159722 -.00010957  00000+0 -36930-3 0  1002",
      "2 66028  53.1588 314.3867 0001196  88.6533  21.7024 15.30196452    19"
    ]
  },
  "66029": {
    "noradId": "66029",
    "tle": [
      "1 66029C 25232AA  26100.94284722  .00013887  00000+0  46807-3 0  1002",
      "2 66029  53.1599 314.3339 0001296  83.7900 152.2781 15.30182529    11"
    ]
  },
  "66030": {
    "noradId": "66030",
    "tle": [
      "1 66030C 25232AB  26100.93243056  .00007838  00000+0  26417-3 0  1002",
      "2 66030  53.1594 314.3122 0001223  79.4889 134.0664 15.30186699    16"
    ]
  },
  "66031": {
    "noradId": "66031",
    "tle": [
      "1 66031C 25232AC  26100.89909722 -.00012625  00000+0 -42556-3 0  1001",
      "2 66031  53.1595 314.5092 0001281  88.1664 278.4003 15.30194912    15"
    ]
  },
  "66032": {
    "noradId": "66032",
    "tle": [
      "1 66032C 25232AD  26100.88590278 -.00012929  00000+0 -43583-3 0  1001",
      "2 66032  53.1585 314.4549 0000964  96.8074 255.1964 15.30191792    10"
    ]
  },
  "66058": {
    "noradId": "66058",
    "tle": [
      "1 66058C 25235A   26100.91020833  .00031309  00000+0  10553-2 0  1002",
      "2 66058  53.1569  93.1545 0001334  94.9224  81.4639 15.30174670    10"
    ]
  },
  "66059": {
    "noradId": "66059",
    "tle": [
      "1 66059C 25235B   26100.88312500 -.00003727  00000+0 -12567-3 0  1007",
      "2 66059  53.1597  95.7334 0001269  98.4254 146.1854 15.30175365    15"
    ]
  },
  "66060": {
    "noradId": "66060",
    "tle": [
      "1 66060C 25235C   26100.91298611  .00021620  00000+0  72911-3 0  1008",
      "2 66060  53.1579  95.8840 0001396  95.1608 168.5722 15.30161565    17"
    ]
  },
  "66061": {
    "noradId": "66061",
    "tle": [
      "1 66061C 25235D   26100.91090278  .00028598  00000+0  96496-3 0  1003",
      "2 66061  53.1572  95.3967 0001451  90.6272  51.7309 15.30140027    19"
    ]
  },
  "66062": {
    "noradId": "66062",
    "tle": [
      "1 66062C 25235E   26100.95326389 -.00092309  00000+0 -31076-2 0  1008",
      "2 66062  53.1596  95.5568 0001286 100.0899  95.4675 15.30274857    12"
    ]
  },
  "66063": {
    "noradId": "66063",
    "tle": [
      "1 66063C 25235F   26100.88381944  .00036327  00000+0  12246-2 0  1003",
      "2 66063  53.1571  96.1070 0001197  95.4054 321.0499 15.30167726    10"
    ]
  },
  "66064": {
    "noradId": "66064",
    "tle": [
      "1 66064C 25235G   26100.92201389  .00045041  00000+0  15179-2 0  1004",
      "2 66064  53.1591  95.7264 0001288  92.5875 279.0678 15.30172485    12"
    ]
  },
  "66065": {
    "noradId": "66065",
    "tle": [
      "1 66065C 25235H   26100.92548611  .00045481  00000+0  15328-2 0  1001",
      "2 66065  53.1573  95.8943 0001241  92.2114 205.5149 15.30171287    16"
    ]
  },
  "66066": {
    "noradId": "66066",
    "tle": [
      "1 66066C 25235J   26100.87756944  .00039429  00000+0  13290-2 0  1007",
      "2 66066  53.1585  95.9773 0001326  94.8714   8.5554 15.30169743    15"
    ]
  },
  "66067": {
    "noradId": "66067",
    "tle": [
      "1 66067C 25235K   26100.89076389  .00039144  00000+0  13194-2 0  1005",
      "2 66067  53.1597  95.7765 0001062  91.1278 154.8179 15.30169685    13"
    ]
  },
  "66068": {
    "noradId": "66068",
    "tle": [
      "1 66068C 25235L   26100.86993056  .00025867  00000+0  87189-3 0  1005",
      "2 66068  53.1590  95.7235 0001343  92.4205 114.3133 15.30176431    13"
    ]
  },
  "66069": {
    "noradId": "66069",
    "tle": [
      "1 66069C 25235M   26100.89631944  .00046819  00000+0  15781-2 0  1002",
      "2 66069  53.1580  95.5312 0001310  94.1228 292.9628 15.30165895    19"
    ]
  },
  "66070": {
    "noradId": "66070",
    "tle": [
      "1 66070C 25235N   26100.87826389  .00050783  00000+0  17115-2 0  1009",
      "2 66070  53.1576  96.0619 0001233  95.5833 325.1380 15.30167098    14"
    ]
  },
  "66071": {
    "noradId": "66071",
    "tle": [
      "1 66071C 25235P   26100.93104167  .00037581  00000+0  12666-2 0  1007",
      "2 66071  53.1571  95.2320 0001436  91.5299 196.7336 15.30172487    18"
    ]
  },
  "66072": {
    "noradId": "66072",
    "tle": [
      "1 66072C 25235Q   26100.94145833  .00029382  00000+0  99029-3 0  1003",
      "2 66072  53.1596  95.5994 0001377  95.5913  40.6851 15.30176528    16"
    ]
  },
  "66073": {
    "noradId": "66073",
    "tle": [
      "1 66073C 25235R   26100.92618056  .00032389  00000+0  10915-2 0  1001",
      "2 66073  53.1576  95.8549 0001158  96.6064 222.3988 15.30179006    14"
    ]
  },
  "66074": {
    "noradId": "66074",
    "tle": [
      "1 66074C 25235S   26100.95187500  .00022295  00000+0  75158-3 0  1006",
      "2 66074  53.1581  95.6654 0001328  96.9515  38.5888 15.30173672    18"
    ]
  },
  "66075": {
    "noradId": "66075",
    "tle": [
      "1 66075C 25235T   26100.87270833  .00033368  00000+0  11247-2 0  1001",
      "2 66075  53.1598  95.8233 0001550  92.2194  71.6635 15.30171326    13"
    ]
  },
  "66076": {
    "noradId": "66076",
    "tle": [
      "1 66076C 25235U   26100.87062500  .00031779  00000+0  10713-2 0  1003",
      "2 66076  53.1591  95.9724 0001283  93.7514 348.8530 15.30169044    15"
    ]
  },
  "66077": {
    "noradId": "66077",
    "tle": [
      "1 66077C 25235V   26100.89354167  .00042478  00000+0  14317-2 0  1001",
      "2 66077  53.1597  95.7962 0001280  92.9239 150.8828 15.30169406    19"
    ]
  },
  "66078": {
    "noradId": "66078",
    "tle": [
      "1 66078C 25235W   26100.88312500  .00036825  00000+0  12412-2 0  1009",
      "2 66078  53.1586  95.6247 0001323  92.6954 204.2184 15.30170074    14"
    ]
  },
  "66079": {
    "noradId": "66079",
    "tle": [
      "1 66079C 25235X   26100.93937500  .00033885  00000+0  11421-2 0  1001",
      "2 66079  53.1575  95.2939 0001324  94.4675 187.3798 15.30174492    18"
    ]
  },
  "66080": {
    "noradId": "66080",
    "tle": [
      "1 66080C 25235Y   26100.94006944  .00033159  00000+0  11174-2 0  1002",
      "2 66080  53.1595  95.4299 0001384  93.9019 121.9635 15.30179228    11"
    ]
  },
  "66081": {
    "noradId": "66081",
    "tle": [
      "1 66081C 25235Z   26100.89701389  .00046385  00000+0  15633-2 0  1001",
      "2 66081  53.1570  95.3535 0001180  95.0581  23.0998 15.30170427    14"
    ]
  },
  "66082": {
    "noradId": "66082",
    "tle": [
      "1 66082C 25235AA  26100.94215278  .00039199  00000+0  13210-2 0  1009",
      "2 66082  53.1572  95.2127 0001275  93.6414 238.4122 15.30174819    17"
    ]
  }
}